{
  "type": "FeatureCollection",
  "features": [
    {
      "type": "Feature",
      "properties": {
        "norad_id": 38122,
        "name": "FENGYUN 1C DEB",
        "group": "fengyun-1c-debris",
        "lat": 19.494621579976968,
        "lon": -179.40193975939945,
        "alt_km": 607.2624995267315,
        "timestamp": "2025-12-21T09:37:22.944569+00:00",
        "meta_object_name": "FENGYUN 1C DEB",
        "meta_object_id": "1999-025EPT",
        "meta_epoch": "2025-12-20T11:15:30.693600",
        "meta_mean_motion": 14.42669791,
        "meta_eccentricity": 0.02281626,
        "meta_inclination": 98.3168,
        "meta_ra_of_asc_node": 356.7199,
        "meta_arg_of_pericenter": 133.5612,
        "meta_mean_anomaly": 228.4777,
        "meta_ephemeris_type": 0,
        "meta_classification_type": "U",
        "meta_norad_cat_id": 38122,
        "meta_element_set_no": 999,
        "meta_rev_at_epoch": 67850,
        "meta_bstar": 0.00022815826,
        "meta_mean_motion_dot": 9.88e-06,
        "meta_mean_motion_ddot": 0,
        "tle_line1": "1 38122U 99025EPT 25354.46910525  .00000988  00000+0  22816-3 0  9998",
        "tle_line2": "2 38122  98.3168 356.7199 0228162 133.5612 228.4777 14.42669791678507"
      },
      "geometry": {
        "type": "Point",
        "coordinates": [
          -179.40193975939945,
          19.494621579976968
        ]
      }
    },
    {
      "type": "Feature",
      "properties": {
        "norad_id": 38124,
        "name": "FENGYUN 1C DEB",
        "group": "fengyun-1c-debris",
        "lat": 20.376047906942606,
        "lon": 128.9530313994879,
        "alt_km": 1249.1133131980223,
        "timestamp": "2025-12-21T09:37:22.944580+00:00",
        "meta_object_name": "FENGYUN 1C DEB",
        "meta_object_id": "1999-025EPV",
        "meta_epoch": "2025-12-20T14:53:13.924320",
        "meta_mean_motion": 13.40937676,
        "meta_eccentricity": 0.035542,
        "meta_inclination": 97.8099,
        "meta_ra_of_asc_node": 305.4265,
        "meta_arg_of_pericenter": 285.6733,
        "meta_mean_anomaly": 70.5462,
        "meta_ephemeris_type": 0,
        "meta_classification_type": "U",
        "meta_norad_cat_id": 38124,
        "meta_element_set_no": 999,
        "meta_rev_at_epoch": 54687,
        "meta_bstar": 0.00016826,
        "meta_mean_motion_dot": 1.02e-06,
        "meta_mean_motion_ddot": 0,
        "tle_line1": "1 38124U 99025EPV 25354.62030005  .00000102  00000+0  16826-3 0  9996",
        "tle_line2": "2 38124  97.8099 305.4265 0355420 285.6733  70.5462 13.40937676546870"
      },
      "geometry": {
        "type": "Point",
        "coordinates": [
          128.9530313994879,
          20.376047906942606
        ]
      }
    },
    {
      "type": "Feature",
      "properties": {
        "norad_id": 38130,
        "name": "FENGYUN 1C DEB",
        "group": "fengyun-1c-debris",
        "lat": -78.51844396511031,
        "lon": 94.47998125760745,
        "alt_km": 940.9332763285393,
        "timestamp": "2025-12-21T09:37:22.944590+00:00",
        "meta_object_name": "FENGYUN 1C DEB",
        "meta_object_id": "1999-025EQB",
        "meta_epoch": "2025-11-28T09:19:02.490528",
        "meta_mean_motion": 13.7720595,
        "meta_eccentricity": 0.02085156,
        "meta_inclination": 98.6035,
        "meta_ra_of_asc_node": 25.4413,
        "meta_arg_of_pericenter": 263.5047,
        "meta_mean_anomaly": 94.2329,
        "meta_ephemeris_type": 0,
        "meta_classification_type": "U",
        "meta_norad_cat_id": 38130,
        "meta_element_set_no": 999,
        "meta_rev_at_epoch": 69085,
        "meta_bstar": 0.0016964005,
        "meta_mean_motion_dot": 1.933e-05,
        "meta_mean_motion_ddot": 0,
        "tle_line1": "1 38130U 99025EQB 25332.38822327  .00001933  00000+0  16964-2 0  9993",
        "tle_line2": "2 38130  98.6035  25.4413 0208515 263.5047  94.2329 13.77205950690851"
      },
      "geometry": {
        "type": "Point",
        "coordinates": [
          94.47998125760745,
          -78.51844396511031
        ]
      }
    },
    {
      "type": "Feature",
      "properties": {
        "norad_id": 38135,
        "name": "FENGYUN 1C DEB",
        "group": "fengyun-1c-debris",
        "lat": -19.64724764259862,
        "lon": 55.19942739124693,
        "alt_km": 744.5543848685193,
        "timestamp": "2025-12-21T09:37:22.944600+00:00",
        "meta_object_name": "FENGYUN 1C DEB",
        "meta_object_id": "1999-025EQG",
        "meta_epoch": "2025-12-20T10:07:36.417792",
        "meta_mean_motion": 14.25297349,
        "meta_eccentricity": 0.02226674,
        "meta_inclination": 98.6595,
        "meta_ra_of_asc_node": 51.1134,
        "meta_arg_of_pericenter": 49.0857,
        "meta_mean_anomaly": 312.9371,
        "meta_ephemeris_type": 0,
        "meta_classification_type": "U",
        "meta_norad_cat_id": 38135,
        "meta_element_set_no": 999,
        "meta_rev_at_epoch": 61150,
        "meta_bstar": 0.00027123211,
        "meta_mean_motion_dot": 7.8e-06,
        "meta_mean_motion_ddot": 0,
        "tle_line1": "1 38135U 99025EQG 25354.42194928  .00000780  00000+0  27123-3 0  9995",
        "tle_line2": "2 38135  98.6595  51.1134 0222667  49.0857 312.9371 14.25297349611502"
      },
      "geometry": {
        "type": "Point",
        "coordinates": [
          55.19942739124693,
          -19.64724764259862
        ]
      }
    },
    {
      "type": "Feature",
      "properties": {
        "norad_id": 38137,
        "name": "FENGYUN 1C DEB",
        "group": "fengyun-1c-debris",
        "lat": 80.88127417882653,
        "lon": -65.5489196944191,
        "alt_km": 841.9638400975646,
        "timestamp": "2025-12-21T09:37:22.944610+00:00",
        "meta_object_name": "FENGYUN 1C DEB",
        "meta_object_id": "1999-025EQJ",
        "meta_epoch": "2025-12-11T22:03:53.453088",
        "meta_mean_motion": 14.06158007,
        "meta_eccentricity": 0.0046494,
        "meta_inclination": 98.8649,
        "meta_ra_of_asc_node": 28.6821,
        "meta_arg_of_pericenter": 71.683,
        "meta_mean_anomaly": 288.9388,
        "meta_ephemeris_type": 0,
        "meta_classification_type": "U",
        "meta_norad_cat_id": 38137,
        "meta_element_set_no": 999,
        "meta_rev_at_epoch": 63697,
        "meta_bstar": 0.00049172,
        "meta_mean_motion_dot": 7.73e-06,
        "meta_mean_motion_ddot": 0,
        "tle_line1": "1 38137U 99025EQJ 25345.91936867  .00000773  00000+0  49172-3 0  9997",
        "tle_line2": "2 38137  98.8649  28.6821 0046494  71.6830 288.9388 14.06158007636976"
      },
      "geometry": {
        "type": "Point",
        "coordinates": [
          -65.5489196944191,
          80.88127417882653
        ]
      }
    },
    {
      "type": "Feature",
      "properties": {
        "norad_id": 38143,
        "name": "FENGYUN 1C DEB",
        "group": "fengyun-1c-debris",
        "lat": -0.14841841338614223,
        "lon": -128.75190973416838,
        "alt_km": 840.5273863433604,
        "timestamp": "2025-12-21T09:37:22.944624+00:00",
        "meta_object_name": "FENGYUN 1C DEB",
        "meta_object_id": "1999-025EQQ",
        "meta_epoch": "2025-12-17T09:02:58.047936",
        "meta_mean_motion": 14.0490641,
        "meta_eccentricity": 0.00563343,
        "meta_inclination": 99.0304,
        "meta_ra_of_asc_node": 47.2681,
        "meta_arg_of_pericenter": 207.7954,
        "meta_mean_anomaly": 152.0199,
        "meta_ephemeris_type": 0,
        "meta_classification_type": "U",
        "meta_norad_cat_id": 38143,
        "meta_element_set_no": 999,
        "meta_rev_at_epoch": 60348,
        "meta_bstar": 0.00075665918,
        "meta_mean_motion_dot": 1.189e-05,
        "meta_mean_motion_ddot": 0,
        "tle_line1": "1 38143U 99025EQQ 25351.37706074  .00001189  00000+0  75666-3 0  9995",
        "tle_line2": "2 38143  99.0304  47.2681 0056334 207.7954 152.0199 14.04906410603486"
      },
      "geometry": {
        "type": "Point",
        "coordinates": [
          -128.75190973416838,
          -0.14841841338614223
        ]
      }
    },
    {
      "type": "Feature",
      "properties": {
        "norad_id": 38144,
        "name": "FENGYUN 1C DEB",
        "group": "fengyun-1c-debris",
        "lat": -11.163889295090106,
        "lon": -2.6473807494429122,
        "alt_km": 842.6152585154532,
        "timestamp": "2025-12-21T09:37:22.944634+00:00",
        "meta_object_name": "FENGYUN 1C DEB",
        "meta_object_id": "1999-025EQR",
        "meta_epoch": "2025-12-12T07:21:41.538528",
        "meta_mean_motion": 13.59024242,
        "meta_eccentricity": 0.02903277,
        "meta_inclination": 98.9688,
        "meta_ra_of_asc_node": 170.8072,
        "meta_arg_of_pericenter": 192.7812,
        "meta_mean_anomaly": 166.5857,
        "meta_ephemeris_type": 0,
        "meta_classification_type": "U",
        "meta_norad_cat_id": 38144,
        "meta_element_set_no": 999,
        "meta_rev_at_epoch": 61031,
        "meta_bstar": 0.0024533733,
        "meta_mean_motion_dot": 2.337e-05,
        "meta_mean_motion_ddot": 0,
        "tle_line1": "1 38144U 99025EQR 25346.30673077  .00002337  00000+0  24534-2 0  9992",
        "tle_line2": "2 38144  98.9688 170.8072 0290327 192.7812 166.5857 13.59024242610319"
      },
      "geometry": {
        "type": "Point",
        "coordinates": [
          -2.6473807494429122,
          -11.163889295090106
        ]
      }
    }
  ]
}